QIANFAN-180             
1 69397U 26124R   26168.65133516 -.01899969  00000+0 -96350+0 0  9996
2 69397  88.9979   1.9801 0003276 205.6383 154.4645 14.19909491  1883
QIANFAN-181             
1 69398U 26124S   26168.81803309 -.01767955  00000+0 -10398+1 0  9997
2 69398  88.9978   1.9678 0006543 127.6034 232.5747 14.12274520  1906
QIANFAN-182             
1 69399U 26124T   26168.80802436 -.01789106  00000+0 -10114+1 0  9995
2 69399  88.9978   1.9663 0003537 200.1250 159.9798 14.14484823  1907
QIANFAN OBJECT A        
1 69401U 26125A   26168.69126812 -.01651562  00000+0 -97878+0 0  9999
2 69401  88.9947 280.3937 0019847 172.1127 188.0374 14.11485234  1778
QIANFAN OBJECT B        
1 69402U 26125B   26168.47547660 -.02055229  00000+0 -11737+1 0  9994
2 69402  88.9938 280.4151 0015306 171.0731 189.0731 14.13777102  1748
QIANFAN OBJECT C        
1 69403U 26125C   26168.68674676 -.01754819  00000+0 -10261+1 0  9997
2 69403  88.9947 280.3931 0020425 164.8771 195.3029 14.12461919  1774
QIANFAN OBJECT D        
1 69404U 26125D   26168.61160352 -.01824883  00000+0 -10433+1 0  9992
2 69404  88.9948 280.4005 0016679 160.6732 199.5090 14.13232659  1767
QIANFAN OBJECT E        
1 69405U 26125E   26168.60961633 -.01780805  00000+0 -10163+1 0  9998
2 69405  88.9946 280.4000 0017357 167.7698 192.3913 14.13878561  1767
QIANFAN OBJECT F        
1 69406U 26125F   26168.60670402 -.01737909  00000+0 -96810+0 0  9999
2 69406  88.9947 280.3997 0017342 181.3775 178.7367 14.15084907  1761
QIANFAN OBJECT G        
1 69407U 26125G   26168.67664826 -.01728094  00000+0 -97856+0 0  9996
2 69407  88.9947 280.3920 0016192 175.0592 185.0758 14.14182121  1779
QIANFAN OBJECT H        
1 69408U 26125H   26168.60499645 -.01740134  00000+0 -97667+0 0  9994
2 69408  88.9947 280.3997 0017185 173.7543 186.3862 14.14683866  1769
QIANFAN OBJECT J        
1 69409U 26125J   26168.67258567 -.01756346  00000+0 -97738+0 0  9999
2 69409  88.9947 280.3907 0016904 175.2815 184.8535 14.15188077  1774
QIANFAN OBJECT K        
1 69410U 26125K   26168.45921022 -.01776964  00000+0 -96379+0 0  9998
2 69410  88.9945 280.4149 0018296 185.8959 174.2016 14.16611060  1743
QIANFAN OBJECT L        
1 69411U 26125L   26168.59729616 -.01773691  00000+0 -94956+0 0  9992
2 69411  88.9947 280.3982 0012846 191.7547 168.3344 14.17349401  1762
QIANFAN OBJECT M        
1 69412U 26125M   26168.66655198 -.01819524  00000+0 -95613+0 0  9991
2 69412  88.9945 280.3900 0013592 197.0320 163.0414 14.17796679  1761
QIANFAN OBJECT N        
1 69413U 26125N   26168.66535198 -.01783982  00000+0 -93375+0 0  9990
2 69413  88.9946 280.3899 0013238 192.0047 168.0828 14.18583164  1777
QIANFAN OBJECT P        
1 69414U 26125P   26168.66418553 -.01766525  00000+0 -91902+0 0  9994
2 69414  88.9947 280.3893 0012350 192.1142 167.9753 14.18871868  1770
QIANFAN OBJECT Q        
1 69415U 26125Q   26168.73413149 -.01839226  00000+0 -94391+0 0  9993
2 69415  88.9946 280.3814 0008557 187.5656 172.5406 14.19130967  1771
QIANFAN OBJECT R        
1 69416U 26125R   26168.59394480 -.01823161  00000+0 -95083+0 0  9994
2 69416  88.9946 280.3979 0016539 188.5541 171.5369 14.18185467  1767
QIANFAN OBJECT S        
1 69417U 26125S   26168.73311679 -.01690265  00000+0 -87205+0 0  9994
2 69417  88.9947 280.3814 0011008 176.3462 183.7810 14.19142097  1781
QIANFAN OBJECT T        
1 69418U 26125T   26168.67299878 -.01740558  00000+0 -96757+0 0  9997
2 69418  88.9947 280.3908 0016442 179.0490 181.0731 14.15211165  1775
STARLINK-37629          
1 69443U 26127A   26168.83335647 -.00037321  00000+0 -18611-3 0  9993
2 69443  53.1588 259.2727 0000902  48.2197  29.4143 15.80902962  2742
STARLINK-37509          
1 69444U 26127B   26168.83335647 -.00033714  00000+0 -16776-3 0  9996
2 69444  53.1610 259.2499 0001726  55.2457  33.5977 15.80892980  2746
STARLINK-37641          
1 69445U 26127C   26168.83335647 -.00078585  00000+0 -39736-3 0  9993
2 69445  53.1608 259.2329 0001161  63.5337  33.5662 15.80919882  2740
STARLINK-37522          
1 69446U 26127D   26168.83335647 -.00066490  00000+0 -33528-3 0  9999
2 69446  53.1587 259.2162 0000854  58.9525  46.0926 15.80914888  2740
STARLINK-37640          
1 69447U 26127E   26168.83335647 -.00025517  00000+0 -12599-3 0  9990
2 69447  53.1586 259.1999 0001231  55.2811  57.6305 15.80895301  2742
STARLINK-37572          
1 69448U 26127F   26168.83335647 -.00036734  00000+0 -18320-3 0  9992
2 69448  53.1584 259.1655 0000826  70.1046  59.3792 15.80891988  2741
STARLINK-37643          
1 69449U 26127G   26168.83335647 -.00013517  00000+0 -65055-4 0  9995
2 69449  53.1605 259.1526 0000972  84.2749  51.6073 15.80871534  2743
