OBJECT_NAME,OBJECT_ID,EPOCH,MEAN_MOTION,ECCENTRICITY,INCLINATION,RA_OF_ASC_NODE,ARG_OF_PERICENTER,MEAN_ANOMALY,EPHEMERIS_TYPE,CLASSIFICATION_TYPE,NORAD_CAT_ID,ELEMENT_SET_NO,REV_AT_EPOCH,BSTAR,MEAN_MOTION_DOT,MEAN_MOTION_DDOT
QIANFAN-180,2026-124R,2026-06-17T15:37:55.357824,14.19909491,.0003276,88.9979,1.9801,205.6383,154.4645,0,U,69397,999,188,-.9635E+0,-.1899969E-1,0
QIANFAN-181,2026-124S,2026-06-17T19:37:58.058976,14.12274520,.0006543,88.9978,1.9678,127.6034,232.5747,0,U,69398,999,190,-.10398E+1,-.1767955E-1,0
QIANFAN-182,2026-124T,2026-06-17T19:23:33.304704,14.14484823,.0003537,88.9978,1.9663,200.1250,159.9798,0,U,69399,999,190,-.10114E+1,-.1789106E-1,0
QIANFAN OBJECT A,2026-125A,2026-06-17T16:35:25.565568,14.11485234,.0019847,88.9947,280.3937,172.1127,188.0374,0,U,69401,999,177,-.97878E+0,-.1651562E-1,0
QIANFAN OBJECT B,2026-125B,2026-06-17T11:24:41.178240,14.13777102,.0015306,88.9938,280.4151,171.0731,189.0731,0,U,69402,999,174,-.11737E+1,-.2055229E-1,0
QIANFAN OBJECT C,2026-125C,2026-06-17T16:28:54.920064,14.12461919,.0020425,88.9947,280.3931,164.8771,195.3029,0,U,69403,999,177,-.10261E+1,-.1754819E-1,0
QIANFAN OBJECT D,2026-125D,2026-06-17T14:40:42.544128,14.13232659,.0016679,88.9948,280.4005,160.6732,199.5090,0,U,69404,999,176,-.10433E+1,-.1824883E-1,0
QIANFAN OBJECT E,2026-125E,2026-06-17T14:37:50.850912,14.13878561,.0017357,88.9946,280.4000,167.7698,192.3913,0,U,69405,999,176,-.10163E+1,-.1780805E-1,0
QIANFAN OBJECT F,2026-125F,2026-06-17T14:33:39.227328,14.15084907,.0017342,88.9947,280.3997,181.3775,178.7367,0,U,69406,999,176,-.9681E+0,-.1737909E-1,0
QIANFAN OBJECT G,2026-125G,2026-06-17T16:14:22.409664,14.14182121,.0016192,88.9947,280.3920,175.0592,185.0758,0,U,69407,999,177,-.97856E+0,-.1728094E-1,0
QIANFAN OBJECT H,2026-125H,2026-06-17T14:31:11.693280,14.14683866,.0017185,88.9947,280.3997,173.7543,186.3862,0,U,69408,999,176,-.97667E+0,-.1740134E-1,0
QIANFAN OBJECT J,2026-125J,2026-06-17T16:08:31.401888,14.15188077,.0016904,88.9947,280.3907,175.2815,184.8535,0,U,69409,999,177,-.97738E+0,-.1756346E-1,0
QIANFAN OBJECT K,2026-125K,2026-06-17T11:01:15.763008,14.16611060,.0018296,88.9945,280.4149,185.8959,174.2016,0,U,69410,999,174,-.96379E+0,-.1776964E-1,0
QIANFAN OBJECT L,2026-125L,2026-06-17T14:20:06.388224,14.17349401,.0012846,88.9947,280.3982,191.7547,168.3344,0,U,69411,999,176,-.94956E+0,-.1773691E-1,0
QIANFAN OBJECT M,2026-125M,2026-06-17T15:59:50.091072,14.17796679,.0013592,88.9945,280.3900,197.0320,163.0414,0,U,69412,999,176,-.95613E+0,-.1819524E-1,0
QIANFAN OBJECT N,2026-125N,2026-06-17T15:58:06.411072,14.18583164,.0013238,88.9946,280.3899,192.0047,168.0828,0,U,69413,999,177,-.93375E+0,-.1783982E-1,0
QIANFAN OBJECT P,2026-125P,2026-06-17T15:56:25.629792,14.18871868,.001235,88.9947,280.3893,192.1142,167.9753,0,U,69414,999,177,-.91902E+0,-.1766525E-1,0
QIANFAN OBJECT Q,2026-125Q,2026-06-17T17:37:08.960736,14.19130967,.0008557,88.9946,280.3814,187.5656,172.5406,0,U,69415,999,177,-.94391E+0,-.1839226E-1,0
QIANFAN OBJECT R,2026-125R,2026-06-17T14:15:16.830720,14.18185467,.0016539,88.9946,280.3979,188.5541,171.5369,0,U,69416,999,176,-.95083E+0,-.1823161E-1,0
QIANFAN OBJECT S,2026-125S,2026-06-17T17:35:41.290656,14.19142097,.0011008,88.9947,280.3814,176.3462,183.7810,0,U,69417,999,178,-.87205E+0,-.1690265E-1,0
QIANFAN OBJECT T,2026-125T,2026-06-17T16:09:07.094592,14.15211165,.0016442,88.9947,280.3908,179.0490,181.0731,0,U,69418,999,177,-.96757E+0,-.1740558E-1,0
STARLINK-37629,2026-127A,2026-06-17T20:00:01.999008,15.80902962,.0000902,53.1588,259.2727,48.2197,29.4143,0,U,69443,999,274,-.18611E-3,-.37321E-3,0
STARLINK-37509,2026-127B,2026-06-17T20:00:01.999008,15.80892980,.0001726,53.1610,259.2499,55.2457,33.5977,0,U,69444,999,274,-.16776E-3,-.33714E-3,0
STARLINK-37641,2026-127C,2026-06-17T20:00:01.999008,15.80919882,.0001161,53.1608,259.2329,63.5337,33.5662,0,U,69445,999,274,-.39736E-3,-.78585E-3,0
STARLINK-37522,2026-127D,2026-06-17T20:00:01.999008,15.80914888,.0000854,53.1587,259.2162,58.9525,46.0926,0,U,69446,999,274,-.33528E-3,-.6649E-3,0
STARLINK-37640,2026-127E,2026-06-17T20:00:01.999008,15.80895301,.0001231,53.1586,259.1999,55.2811,57.6305,0,U,69447,999,274,-.12599E-3,-.25517E-3,0
STARLINK-37572,2026-127F,2026-06-17T20:00:01.999008,15.80891988,.0000826,53.1584,259.1655,70.1046,59.3792,0,U,69448,999,274,-.1832E-3,-.36734E-3,0
STARLINK-37643,2026-127G,2026-06-17T20:00:01.999008,15.80871534,.0000972,53.1605,259.1526,84.2749,51.6073,0,U,69449,999,274,-.65055E-4,-.13517E-3,0
